[{"OBJECT_NAME":"RADARSAT-2","OBJECT_ID":"2007-061A","EPOCH":"2026-03-09T23:01:05.689632","MEAN_MOTION":14.2996427,"ECCENTRICITY":0.00012561,"INCLINATION":98.582,"RA_OF_ASC_NODE":77.296,"ARG_OF_PERICENTER":84.478,"MEAN_ANOMALY":275.6546,"EPHEMERIS_TYPE":0,"CLASSIFICATION_TYPE":"U","NORAD_CAT_ID":32382,"ELEMENT_SET_NO":999,"REV_AT_EPOCH":95177,"BSTAR":-6.0240739e-5,"MEAN_MOTION_DOT":-1.99e-6,"MEAN_MOTION_DDOT":0},{"OBJECT_NAME":"COSMOS 2251 DEB","OBJECT_ID":"1993-036CZ","EPOCH":"2026-03-09T05:58:05.772288","MEAN_MOTION":14.19336269,"ECCENTRICITY":0.0125997,"INCLINATION":73.7691,"RA_OF_ASC_NODE":359.5819,"ARG_OF_PERICENTER":161.8414,"MEAN_ANOMALY":349.2184,"EPHEMERIS_TYPE":0,"CLASSIFICATION_TYPE":"U","NORAD_CAT_ID":33896,"ELEMENT_SET_NO":999,"REV_AT_EPOCH":87967,"BSTAR":0.00058006141,"MEAN_MOTION_DOT":1.292e-5,"MEAN_MOTION_DDOT":0}]
